OBJECT_NAME,OBJECT_ID,EPOCH,MEAN_MOTION,ECCENTRICITY,INCLINATION,RA_OF_ASC_NODE,ARG_OF_PERICENTER,MEAN_ANOMALY,EPHEMERIS_TYPE,CLASSIFICATION_TYPE,NORAD_CAT_ID,ELEMENT_SET_NO,REV_AT_EPOCH,BSTAR,MEAN_MOTION_DOT,MEAN_MOTION_DDOT
GSAT-29,2018-089A,2026-07-17T04:39:38.704608,1.00267943,.00030892,0.0301,242.0401,216.4726,321.4962,0,U,43698,999,2808,0,.75E-6,0
ES'HAIL 2,2018-090A,2026-07-17T06:33:09.635616,1.00272108,.00022896,0.0126,71.3477,87.3244,260.4860,0,U,43700,999,2797,0,.134E-5,0
GEO-KOMPSAT-2A,2018-100A,2026-07-17T07:02:21.836256,1.00273453,.00022704,0.0319,166.8773,289.1001,72.9715,0,U,43823,999,2793,0,-.354E-5,0
GSAT-11,2018-100B,2026-07-17T03:48:38.629152,1.00271299,.00077371,0.0462,245.6472,212.4140,328.0791,0,U,43824,999,2777,0,-.87E-6,0
GSAT-7A,2018-105A,2026-07-17T04:39:38.704608,1.00271767,.00017417,0.0898,91.2633,20.3658,316.0392,0,U,43864,999,2774,0,.17E-6,0
COSMOS 2533,2018-107A,2026-07-17T01:37:51.906432,1.00270031,.00006886,0.0382,114.5556,130.7988,143.9945,0,U,43867,999,2774,0,-.48E-6,0
TJS-3,2018-110A,2026-07-16T16:55:11.484192,1.00271583,.0002578,2.6190,80.1355,88.1868,168.2304,0,U,43874,999,2771,0,-.228E-5,0
HELLAS-SAT 4 & SGS-1,2019-007A,2026-07-17T06:36:54.277344,1.00272154,.00057166,0.0683,124.0085,23.8904,285.4239,0,U,44034,999,2766,0,.142E-5,0
GSAT-31,2019-007B,2026-07-17T04:56:49.365888,1.00271928,.00007893,0.0198,99.9150,125.8388,191.3427,0,U,44035,999,2726,0,.115E-5,0
NUSANTARA SATU,2019-009A,2026-07-17T05:58:38.937792,1.00270388,.00046163,0.0317,118.2601,11.1239,41.3470,0,U,44048,999,2707,0,-.245E-5,0
ZHONGXING-6C,2019-012A,2026-07-17T00:12:26.890848,1.00273850,.00148533,0.0502,61.4746,352.6872,14.2107,0,U,44067,999,2703,0,-.345E-5,0
WGS 10 (USA 291),2019-014A,2026-07-17T04:39:38.704608,1.00271803,.00001154,0.0148,64.5861,214.5949,146.0340,0,U,44071,999,2691,0,.37E-6,0
TIANLIAN 2-01,2019-017A,2026-07-17T04:51:38.744064,1.00270980,.0001531,0.6156,83.0556,78.2441,283.6452,0,U,44076,999,2695,0,-.117E-5,0
ARABSAT-6A,2019-021A,2026-07-17T06:34:32.004192,1.00274254,.00019102,0.0453,14.4511,246.7428,163.0362,0,U,44186,999,2645,0,.144E-5,0
BEIDOU-3 IGSO-1,2019-023A,2026-07-16T07:41:18.119904,1.00282972,.00259114,58.7368,37.3490,224.0979,267.2124,0,U,44204,999,750,0,-.209E-5,0
BEIDOU-2 G8,2019-027A,2026-07-17T07:06:58.893408,1.00271077,.0009674,1.7326,74.4960,282.0697,189.8187,0,U,44231,999,2638,0,-.258E-5,0
YAMAL 601,2019-031A,2026-07-17T06:39:39.013632,1.00272512,.00023599,0.0161,71.4214,39.2465,333.3387,0,U,44307,999,2622,0,.11E-5,0
AT&T T-16,2019-034A,2026-07-16T23:06:22.331808,1.00272918,.0000711,0.0156,72.9858,264.8400,202.6904,0,U,44333,999,2593,0,-.126E-5,0
EUTELSAT 7C,2019-034B,2026-07-17T06:27:47.649600,1.00271918,.00033413,0.0773,182.1343,281.2753,295.6400,0,U,44334,999,713,0,.38E-6,0
BEIDOU-3 IGSO-2,2019-035A,2026-07-17T06:59:29.610816,1.00256869,.00393001,55.2507,158.5979,216.4251,143.3539,0,U,44337,999,2597,0,-.132E-5,0
COSMOS 2539,2019-048A,2026-07-17T13:19:49.557216,1.00277202,.0000748,0.0327,105.8228,23.9252,17.5686,0,U,44457,999,2553,0,.72E-6,0
EDRS-C,2019-049A,2026-07-17T07:06:28.941120,1.00270974,.00009617,0.0183,101.4408,22.4017,60.3873,0,U,44475,999,2551,0,-.272E-5,0
INTELSAT 39 (IS-39),2019-049B,2026-07-17T01:35:29.634144,1.00269158,.00009356,0.0198,53.9430,293.4619,33.3157,0,U,44476,999,2542,0,0,0
AMOS-17,2019-050A,2026-07-17T06:30:39.875040,1.00274542,.00015301,0.0190,349.1872,138.8399,281.7419,0,U,44479,999,2548,0,.1E-5,0
AEHF-5 (USA 292),2019-051A,2026-07-17T03:03:38.457216,1.00273340,.00649188,1.4294,338.5744,357.4877,97.8687,0,U,44481,999,2556,0,-.267E-5,0
EUTELSAT 5 WEST B,2019-067A,2026-07-17T06:24:25.472736,1.00272392,.00031031,0.0810,318.1662,157.4137,270.6070,0,U,44624,999,2473,0,-.52E-6,0
TJS-4,2019-070A,2026-07-17T03:24:16.405056,1.00273796,.00003568,0.1051,260.4197,42.3568,126.8073,0,U,44637,999,2483,0,-.181E-5,0
TIBA-1,2019-080A,2026-07-17T06:35:54.372768,1.00272104,.00019789,0.0542,21.6697,105.4294,302.4401,0,U,44800,999,2435,0,.146E-5,0
INMARSAT GX5,2019-080B,2026-07-17T06:28:55.043328,1.00269733,.00021073,0.0345,8.4524,117.1990,277.6869,0,U,44801,999,708,0,.64E-6,0
JCSAT-18 (KACIFIC 1),2019-091A,2026-07-16T19:10:04.140192,1.00272553,.00004261,0.0476,235.9757,341.1765,154.9646,0,U,44868,999,2430,0,-.211E-5,0
ELEKTRO-L 3,2019-095A,2026-07-17T01:51:38.672352,1.00271059,.0001135,0.3320,82.1404,20.6078,296.0440,0,U,44903,999,2400,0,-.107E-5,0
