GSAT-29                 
1 43698U 18089A   26198.19419797  .00000075  00000+0  00000+0 0  9999
2 43698   0.0301 242.0401 0003089 216.4726 321.4962  1.00267943 28084
ES'HAIL 2               
1 43700U 18090A   26198.27302819  .00000134  00000+0  00000+0 0  9996
2 43700   0.0126  71.3477 0002289  87.3244 260.4860  1.00272108 27975
GEO-KOMPSAT-2A          
1 43823U 18100A   26198.29330829 -.00000354  00000+0  00000+0 0  9993
2 43823   0.0319 166.8773 0002270 289.1001  72.9715  1.00273453 27932
GSAT-11                 
1 43824U 18100B   26198.15878043 -.00000087  00000+0  00000+0 0  9997
2 43824   0.0462 245.6472 0007737 212.4140 328.0791  1.00271299 27777
GSAT-7A                 
1 43864U 18105A   26198.19419797  .00000017  00000+0  00000+0 0  9999
2 43864   0.0898  91.2633 0001741  20.3658 316.0392  1.00271767 27748
COSMOS 2533             
1 43867U 18107A   26198.06796188 -.00000048  00000+0  00000+0 0  9997
2 43867   0.0382 114.5556 0000688 130.7988 143.9945  1.00270031 27747
TJS-3                   
1 43874U 18110A   26197.70499403 -.00000228  00000+0  00000+0 0  9999
2 43874   2.6190  80.1355 0002578  88.1868 168.2304  1.00271583 27717
HELLAS-SAT 4 & SGS-1    
1 44034U 19007A   26198.27562821  .00000142  00000+0  00000+0 0  9996
2 44034   0.0683 124.0085 0005716  23.8904 285.4239  1.00272154 27665
GSAT-31                 
1 44035U 19007B   26198.20612692  .00000115  00000+0  00000+0 0  9992
2 44035   0.0198  99.9150 0000789 125.8388 191.3427  1.00271928 27262
NUSANTARA SATU          
1 44048U 19009A   26198.24906178 -.00000245  00000+0  00000+0 0  9992
2 44048   0.0317 118.2601 0004616  11.1239  41.3470  1.00270388 27070
ZHONGXING-6C            
1 44067U 19012A   26198.00864457 -.00000345  00000+0  00000+0 0  9995
2 44067   0.0502  61.4746 0014853 352.6872  14.2107  1.00273850 27035
WGS 10 (USA 291)        
1 44071U 19014A   26198.19419797  .00000037  00000+0  00000+0 0  9992
2 44071   0.0148  64.5861 0000115 214.5949 146.0340  1.00271803 26910
TIANLIAN 2-01           
1 44076U 19017A   26198.20253176 -.00000117  00000+0  00000+0 0  9999
2 44076   0.6156  83.0556 0001531  78.2441 283.6452  1.00270980 26953
ARABSAT-6A              
1 44186U 19021A   26198.27398153  .00000144  00000+0  00000+0 0  9997
2 44186   0.0453  14.4511 0001910 246.7428 163.0362  1.00274254 26450
BEIDOU-3 IGSO-1         
1 44204U 19023A   26197.32034861 -.00000209  00000+0  00000+0 0  9991
2 44204  58.7368  37.3490 0025911 224.0979 267.2124  1.00282972  7507
BEIDOU-2 G8             
1 44231U 19027A   26198.29651497 -.00000258  00000+0  00000+0 0  9996
2 44231   1.7326  74.4960 0009674 282.0697 189.8187  1.00271077 26381
YAMAL 601               
1 44307U 19031A   26198.27753488  .00000110  00000+0  00000+0 0  9992
2 44307   0.0161  71.4214 0002359  39.2465 333.3387  1.00272512 26227
AT&T T-16               
1 44333U 19034A   26197.96275847 -.00000126  00000+0  00000+0 0  9995
2 44333   0.0156  72.9858 0000711 264.8400 202.6904  1.00272918 25935
EUTELSAT 7C             
1 44334U 19034B   26198.26930150  .00000038  00000+0  00000+0 0  9996
2 44334   0.0773 182.1343 0003341 281.2753 295.6400  1.00271918  7134
BEIDOU-3 IGSO-2         
1 44337U 19035A   26198.29131494 -.00000132  00000+0  00000+0 0  9993
2 44337  55.2507 158.5979 0039300 216.4251 143.3539  1.00256869 25975
COSMOS 2539             
1 44457U 19048A   26198.55543469  .00000072  00000+0  00000+0 0  9990
2 44457   0.0327 105.8228 0000748  23.9252  17.5686  1.00277202 25535
EDRS-C                  
1 44475U 19049A   26198.29616830 -.00000272  00000+0  00000+0 0  9998
2 44475   0.0183 101.4408 0000961  22.4017  60.3873  1.00270974 25518
INTELSAT 39 (IS-39)     
1 44476U 19049B   26198.06631521  .00000000  00000+0  00000+0 0  9996
2 44476   0.0198  53.9430 0000935 293.4619  33.3157  1.00269158 25427
AMOS-17                 
1 44479U 19050A   26198.27129485  .00000100  00000+0  00000+0 0  9996
2 44479   0.0190 349.1872 0001530 138.8399 281.7419  1.00274542 25480
AEHF-5 (USA 292)        
1 44481U 19051A   26198.12752844 -.00000267  00000+0  00000+0 0  9990
2 44481   1.4294 338.5744 0064918 357.4877  97.8687  1.00273340 25569
EUTELSAT 5 WEST B       
1 44624U 19067A   26198.26696149 -.00000052  00000+0  00000+0 0  9998
2 44624   0.0810 318.1662 0003103 157.4137 270.6070  1.00272392 24737
TJS-4                   
1 44637U 19070A   26198.14185654 -.00000181  00000+0  00000+0 0  9990
2 44637   0.1051 260.4197 0000356  42.3568 126.8073  1.00273796 24833
TIBA-1                  
1 44800U 19080A   26198.27493487  .00000146  00000+0  00000+0 0  9993
2 44800   0.0542  21.6697 0001978 105.4294 302.4401  1.00272104 24355
INMARSAT GX5            
1 44801U 19080B   26198.27008152  .00000064  00000+0  00000+0 0  9994
2 44801   0.0345   8.4524 0002107 117.1990 277.6869  1.00269733  7083
JCSAT-18 (KACIFIC 1)    
1 44868U 19091A   26197.79865903 -.00000211  00000+0  00000+0 0  9995
2 44868   0.0476 235.9757 0000426 341.1765 154.9646  1.00272553 24305
ELEKTRO-L 3             
1 44903U 19095A   26198.07753093 -.00000107  00000+0  00000+0 0  9991
2 44903   0.3320  82.1404 0001135  20.6078 296.0440  1.00271059 24008
